NORAD_CAT_ID,OBJECT_NAME,OBJECT_TYPE,EPOCH,MEAN_MOTION,ECCENTRICITY,INCLINATION,RA_OF_ASC_NODE,ARG_OF_PERICENTER,MEAN_ANOMALY,BSTAR,MEAN_MOTION_DOT,MEAN_MOTION_DDOT,TLE_LINE0,TLE_LINE1,TLE_LINE2,SEMIMAJOR_AXIS,PERIOD,APOGEE,PERIGEE,DECAYED
52659.0,STARLINK-3960,PAYLOAD,2023-06-06 21:54:44,15.08836027,0.0001033,53.2171,353.7164,84.8304,275.2806,4.0929e-05,3.64e-06,0.0,0 STARLINK-3960,1 52659U 22053D   23157.91301699  .00000364  00000-0  40929-4 0  9996,2 52659  53.2171 353.7164 0001033  84.8304 275.2806 15.08836027 59230,6917.893,95.438,540.472,539.043,0.0
52659.0,STARLINK-3960,PAYLOAD,2023-06-07 05:51:40,15.08841081,0.0001094,53.2174,352.2295,89.0063,271.1055,-1.1285e-05,-4.67e-06,0.0,0 STARLINK-3960,1 52659U 22053D   23158.24421520 -.00000467  00000-0 -11285-4 0  9998,2 52659  53.2174 352.2295 0001094  89.0063 271.1055 15.08841081 59291,6917.877,95.437,540.499,538.985,0.0
52659.0,STARLINK-3960,PAYLOAD,2023-06-07 18:34:45,15.08835047,0.0001045,53.2171,349.8494,82.9763,277.1348,-3.2486e-06,-3.39e-06,0.0,0 STARLINK-3960,1 52659U 22053D   23158.77414119 -.00000339  00000-0 -32486-5 0  9997,2 52659  53.2171 349.8494 0001045  82.9763 277.1348 15.08835047 59371,6917.896,95.438,540.483,539.038,0.0
52659.0,STARLINK-3960,PAYLOAD,2023-06-07 21:45:31,15.08832811,0.0001007,53.2169,349.2548,99.5294,260.5812,0.00011929,1.611e-05,0.0,0 STARLINK-3960,1 52659U 22053D   23158.90661843  .00001611  00000-0  11929-3 0  9999,2 52659  53.2169 349.2548 0001007  99.5294 260.5812 15.08832811 59382,6917.902,95.438,540.464,539.071,0.0
52659.0,STARLINK-3960,PAYLOAD,2023-06-08 12:04:00,15.08832285,0.0001082,53.217,346.5779,85.4976,274.6139,0.00013372,1.841e-05,0.0,0 STARLINK-3960,1 52659U 22053D   23159.50277978  .00001841  00000-0  13372-3 0  9997,2 52659  53.2170 346.5779 0001082  85.4976 274.6139 15.08832285 59477,6917.904,95.438,540.517,539.02,0.0
52659.0,STARLINK-3960,PAYLOAD,2023-06-08 20:00:55,15.08843235,0.0001068,53.217,345.0911,83.5743,276.5371,0.00011729,1.58e-05,0.0,0 STARLINK-3960,1 52659U 22053D   23159.83397381  .00001580  00000-0  11729-3 0  9998,2 52659  53.2170 345.0911 0001068  83.5743 276.5371 15.08843235 59537,6917.871,95.437,540.474,538.997,0.0
52659.0,STARLINK-3960,PAYLOAD,2023-06-09 05:33:14,15.08843056,0.0001051,53.2169,343.3071,83.9645,276.1467,4.3487e-05,4.04e-06,0.0,0 STARLINK-3960,1 52659U 22053D   23160.23141561  .00000404  00000-0  43487-4 0  9992,2 52659  53.2169 343.3071 0001051  83.9645 276.1467 15.08843056 59588,6917.871,95.437,540.463,539.009,0.0
52659.0,STARLINK-3960,PAYLOAD,2023-06-09 18:16:20,15.0882067,9.73e-05,53.217,340.9281,89.1905,270.9198,0.00024685,3.641e-05,0.0,0 STARLINK-3960,1 52659U 22053D   23160.76134606  .00003641  00000-0  24685-3 0  9996,2 52659  53.2170 340.9281 0000973  89.1905 270.9198 15.08820670 59675,6917.939,95.439,540.478,539.131,0.0
52659.0,STARLINK-3960,PAYLOAD,2023-06-09 21:27:05,15.08844198,0.0001115,53.2169,340.3326,89.9314,270.1806,6.815e-05,7.97e-06,0.0,0 STARLINK-3960,1 52659U 22053D   23160.89381499  .00000797  00000-0  68150-4 0  9999,2 52659  53.2169 340.3326 0001115  89.9314 270.1806 15.08844198 59699,6917.868,95.437,540.504,538.961,0.0
52659.0,STARLINK-3960,PAYLOAD,2023-06-10 05:24:01,15.08839308,0.0001115,53.2175,338.8432,94.3729,265.739,3.108e-05,2.07e-06,0.0,0 STARLINK-3960,1 52659U 22053D   23161.22501862  .00000207  00000-0  31080-4 0  9993,2 52659  53.2175 338.8432 0001115  94.3729 265.7390 15.08839308 59747,6917.883,95.438,540.519,538.976,0.0
52659.0,STARLINK-3960,PAYLOAD,2023-06-10 11:45:34,15.08836785,0.0001193,53.2166,337.6569,85.7795,274.3334,-1.7244e-07,-2.91e-06,0.0,0 STARLINK-3960,1 52659U 22053D   23161.48998244 -.00000291  00000-0 -17244-6 0  9998,2 52659  53.2166 337.6569 0001193  85.7795 274.3334 15.08836785 59771,6917.89,95.438,540.581,538.93,0.0
52659.0,STARLINK-3960,PAYLOAD,2023-06-11 11:36:21,15.08836282,0.0001156,53.2172,333.1976,83.86,276.2523,5.2094e-05,5.41e-06,0.0,0 STARLINK-3960,1 52659U 22053D   23162.48358069  .00000541  00000-0  52094-4 0  9990,2 52659  53.2172 333.1976 0001156  83.8600 276.2523 15.08836282 59924,6917.892,95.438,540.556,538.957,0.0
52659.0,STARLINK-3960,PAYLOAD,2023-06-11 17:57:53,15.08840376,0.0001103,53.2171,332.0074,90.4362,269.6757,7.9905e-05,9.84e-06,0.0,0 STARLINK-3960,1 52659U 22053D   23162.74853714  .00000984  00000-0  79905-4 0  9997,2 52659  53.2171 332.0074 0001103  90.4362 269.6757 15.08840376 59969,6917.879,95.438,540.507,538.981,0.0
52659.0,STARLINK-3960,PAYLOAD,2023-06-12 11:27:08,15.08839044,0.0001182,53.2172,328.7361,97.634,262.4786,4.1734e-05,3.76e-06,0.0,0 STARLINK-3960,1 52659U 22053D   23163.47717920  .00000376  00000-0  41734-4 0  9990,2 52659  53.2172 328.7361 0001182  97.6340 262.4786 15.08839044 60070,6917.883,95.438,540.566,538.931,0.0
52659.0,STARLINK-3960,PAYLOAD,2023-06-12 17:48:40,15.0884251,0.0001103,53.2165,327.5474,93.0587,267.0531,7.0538e-05,8.35e-06,0.0,0 STARLINK-3960,1 52659U 22053D   23163.74213597  .00000835  00000-0  70538-4 0  9995,2 52659  53.2165 327.5474 0001103  93.0587 267.0531 15.08842510 60127,6917.873,95.437,540.501,538.975,0.0
52659.0,STARLINK-3960,PAYLOAD,2023-06-12 20:59:26,15.08845327,0.0001157,53.2163,326.9525,94.0627,266.0498,9.7723e-05,1.268e-05,0.0,0 STARLINK-3960,1 52659U 22053D   23163.87461321  .00001268  00000-0  97723-4 0  9995,2 52659  53.2163 326.9525 0001157  94.0627 266.0498 15.08845327 60131,6917.864,95.437,540.53,538.929,0.0
52659.0,STARLINK-3960,PAYLOAD,2023-06-13 03:21:00,15.0883134,0.0001574,53.2168,325.7625,93.622,266.4953,-2.9026e-05,-7.5e-06,0.0,0 STARLINK-3960,1 52659U 22053D   23164.13958740 -.00000750  00000-0 -29026-4 0  9999,2 52659  53.2168 325.7625 0001574  93.6220 266.4953 15.08831340 60186,6917.907,95.438,540.861,538.683,0.0
52659.0,STARLINK-3960,PAYLOAD,2023-06-13 11:17:55,15.08831673,0.000114,53.2167,324.2757,93.9035,266.2087,-1.7656e-05,-5.69e-06,0.0,0 STARLINK-3960,1 52659U 22053D   23164.47078663 -.00000569  00000-0 -17656-4 0  9997,2 52659  53.2167 324.2757 0001140  93.9035 266.2087 15.08831673 60221,6917.906,95.438,540.559,538.982,0.0
52659.0,STARLINK-3960,PAYLOAD,2023-06-14 11:08:43,15.08834264,0.0001209,53.2176,319.8149,93.9662,266.1468,-2.9527e-05,-7.58e-06,0.0,0 STARLINK-3960,1 52659U 22053D   23165.46438770 -.00000758  00000-0 -29527-4 0  9996,2 52659  53.2176 319.8149 0001209  93.9662 266.1468 15.08834264 60386,6917.898,95.438,540.599,538.927,0.0
52659.0,STARLINK-3960,PAYLOAD,2023-06-14 19:05:38,15.08835819,0.0001252,53.2181,318.3285,77.0229,283.0903,-1.1301e-05,-4.68e-06,0.0,0 STARLINK-3960,1 52659U 22053D   23165.79558742 -.00000468  00000-0 -11301-4 0  9993,2 52659  53.2181 318.3285 0001252  77.0229 283.0903 15.08835819 60421,6917.893,95.438,540.624,538.892,0.0
52659.0,STARLINK-3960,PAYLOAD,2023-06-15 10:59:30,15.08830942,0.0001169,53.2184,315.3552,89.2572,270.8555,5.8387e-05,6.41e-06,0.0,0 STARLINK-3960,1 52659U 22053D   23166.45799061  .00000641  00000-0  58387-4 0  9994,2 52659  53.2184 315.3552 0001169  89.2572 270.8555 15.08830942 60521,6917.908,95.438,540.582,538.964,0.0
52659.0,STARLINK-3960,PAYLOAD,2023-06-15 18:56:25,15.08840662,0.0001196,53.2179,313.8681,90.1659,269.947,7.2749e-05,8.7e-06,0.0,0 STARLINK-3960,1 52659U 22053D   23166.78918499  .00000870  00000-0  72749-4 0  9990,2 52659  53.2179 313.8681 0001196  90.1659 269.9470 15.08840662 60589,6917.878,95.438,540.571,538.916,0.0
52659.0,STARLINK-3960,PAYLOAD,2023-06-16 10:50:16,15.08833383,0.000117,53.2175,310.8945,87.8178,272.2948,0.00027633,4.112e-05,0.0,0 STARLINK-3960,1 52659U 22053D   23167.45158361  .00004112  00000-0  27633-3 0  9993,2 52659  53.2175 310.8945 0001170  87.8178 272.2948 15.08833383 60675,6917.901,95.438,540.575,538.956,0.0
52659.0,STARLINK-3960,PAYLOAD,2023-06-16 15:36:25,15.08848508,9.19e-05,53.216,310.0019,87.0731,273.0366,0.00020357,2.954e-05,0.0,0 STARLINK-3960,1 52659U 22053D   23167.65029431  .00002954  00000-0  20357-3 0  9998,2 52659  53.2160 310.0019 0000919  87.0731 273.0366 15.08848508 60713,6917.854,95.437,540.355,539.084,0.0
52659.0,STARLINK-3960,PAYLOAD,2023-06-16 18:47:11,15.08859778,0.0001103,53.2173,309.407,88.0429,272.069,0.00020644,3.001e-05,0.0,0 STARLINK-3960,1 52659U 22053D   23167.78276621  .00003001  00000-0  20644-3 0  9990,2 52659  53.2173 309.4070 0001103  88.0429 272.0690 15.08859778 60728,6917.82,95.436,540.448,538.922,0.0
52659.0,STARLINK-3960,PAYLOAD,2023-06-17 02:44:08,15.08835622,0.0001491,53.2172,307.921,70.6275,289.4878,3.8747e-05,3.29e-06,0.0,0 STARLINK-3960,1 52659U 22053D   23168.11398815  .00000329  00000-0  38747-4 0  9992,2 52659  53.2172 307.9210 0001491  70.6275 289.4878 15.08835622 60780,6917.894,95.438,540.79,538.727,0.0
52659.0,STARLINK-3960,PAYLOAD,2023-06-17 17:02:38,15.0882331,0.000122,53.2173,305.2438,77.6607,282.4522,-0.00012153,-2.221e-05,0.0,0 STARLINK-3960,1 52659U 22053D   23168.71016410 -.00002221  00000-0 -12153-3 0  9993,2 52659  53.2173 305.2438 0001220  77.6607 282.4522 15.08823310 60870,6917.931,95.439,540.64,538.952,0.0
52659.0,STARLINK-3960,PAYLOAD,2023-06-17 18:38:01,15.08826925,0.0001139,53.2171,304.946,78.1784,281.9336,-9.0515e-05,-1.728e-05,0.0,0 STARLINK-3960,1 52659U 22053D   23168.77640123 -.00001728  00000-0 -90515-4 0  9993,2 52659  53.2171 304.9460 0001139  78.1784 281.9336 15.08826925 60872,6917.92,95.438,540.573,538.997,0.0
52659.0,STARLINK-3960,PAYLOAD,2023-06-18 02:34:56,15.08836558,0.0001099,53.2163,303.4617,71.24,288.8712,-1.8626e-05,-5.84e-06,0.0,0 STARLINK-3960,1 52659U 22053D   23169.10759484 -.00000584  00000-0 -18626-4 0  9994,2 52659  53.2163 303.4617 0001099  71.2400 288.8712 15.08836558 60939,6917.891,95.438,540.516,538.996,0.0
52659.0,STARLINK-3960,PAYLOAD,2023-06-18 15:18:00,15.08849708,0.0001021,53.2161,301.0824,65.4508,294.659,8.1268e-05,1.006e-05,0.0,0 STARLINK-3960,1 52659U 22053D   23169.63750299  .00001006  00000-0  81268-4 0  9997,2 52659  53.2161 301.0824 0001021  65.4508 294.6590 15.08849708 61010,6917.851,95.437,540.422,539.009,0.0
